1 43740U 18096X   20206.44051123  .00002148  00000-0  78717-4 0  9991
2 43740  97.4204 280.7378 0016451 358.6257   1.4935 15.29003239 92113
1 43740U 18096X   20206.63684241  .00002214  00000-0  81036-4 0  9997
2 43740  97.4209 280.9334 0016478 357.8179   2.2986 15.29005392 92145
1 43740U 18096X   20207.09495136  .00002021  00000-0  74203-4 0  9995
2 43740  97.4207 281.3902 0016431 356.1577   3.9534 15.29005926 92210
1 43740U 18096X   20207.16039448  .00002145  00000-0  78589-4 0  9991
2 43740  97.4208 281.4555 0016416 355.9483   4.1621 15.29007202 92222
1 43740U 18096X   20207.29128291  .00002031  00000-0  74574-4 0  9994
2 43740  97.4208 281.5860 0016399 355.4891   4.6198 15.29006952 92247
1 43740U 18096X   20207.68394762  .00001777  00000-0  65586-4 0  9994
2 43740  97.4208 281.9777 0016357 354.0626   6.0418 15.29006784 92304
1 43740U 18096X   20208.01116790  .00001648  00000-0  61034-4 0  9996
2 43740  97.4207 282.3040 0016317 352.8918   7.2088 15.29007011 92352
1 43740U 18096X   20208.46927512  .00001701  00000-0  62889-4 0  9996
2 43740  97.4207 282.7608 0016263 351.2477   8.8476 15.29008826 92420
1 43740U 18096X   20208.73105091  .00001581  00000-0  58657-4 0  9990
2 43740  97.4207 283.0219 0016232 350.3013   9.7911 15.29008991 92465
1 43740U 18096X   20208.92738296  .00001463  00000-0  54474-4 0  9992
2 43740  97.4206 283.2177 0016203 349.5409  10.5491 15.29008845 92490
1 43740U 18096X   20209.12371435  .00001469  00000-0  54690-4 0  9999
2 43740  97.4206 283.4135 0016190 348.8195  11.2683 15.29009538 92520
1 43740U 18096X   20209.45093368  .00001422  00000-0  53041-4 0  9999
2 43740  97.4206 283.7399 0016146 347.6417  12.4425 15.29010210 92571
1 43740U 18096X   20209.51637716  .00001486  00000-0  55283-4 0  9997
2 43740  97.4206 283.8051 0016139 347.4060  12.6774 15.29010854 92585
1 43740U 18096X   20209.71270871  .00001413  00000-0  52715-4 0  9991
2 43740  97.4206 284.0009 0016123 346.6749  13.4063 15.29011016 92614
1 43740U 18096X   20210.17081518  .00001259  00000-0  47249-4 0  9995
2 43740  97.4206 284.4577 0016076 344.9589  15.1171 15.29011540 92686
1 43740U 18096X   20210.43259027  .00001223  00000-0  45972-4 0  9998
2 43740  97.4206 284.7188 0016050 344.0284  16.0447 15.29011968 92727
1 43740U 18096X   20210.62892157  .00001110  00000-0  41978-4 0  9993
2 43740  97.4206 284.9146 0016009 343.2873  16.7837 15.29011805 92755
1 43740U 18096X   20211.15247094  .00001114  00000-0  42124-4 0  9994
2 43740  97.4205 285.4368 0015964 341.3698  18.6956 15.29013127 92830
1 43740U 18096X   20211.21791462  .00001109  00000-0  41938-4 0  9990
2 43740  97.4205 285.5021 0015956 341.1237  18.9410 15.29013254 92845
1 43740U 18096X   20211.47968910  .00001111  00000-0  42015-4 0  9992
2 43740  97.4205 285.7631 0015929 340.1690  19.8929 15.29013924 92889
1 43740U 18096X   20212.06867925  .00001318  00000-0  49354-4 0  9994
2 43740  97.4205 286.3505 0015869 338.0391  22.0167 15.29017222 92978
1 43740U 18096X   20212.46133990  .00001372  00000-0  51267-4 0  9992
2 43740  97.4205 286.7421 0015834 336.5729  23.4788 15.29018644 93030
1 43740U 18096X   20212.65767001  .00001389  00000-0  51845-4 0  9999
2 43740  97.4205 286.9379 0015812 335.8366  24.2130 15.29019369 93067
1 43740U 18096X   20212.78855658  .00001468  00000-0  54660-4 0  9995
2 43740  97.4205 287.0684 0015806 335.3208  24.7274 15.29020188 93088
1 43740U 18096X   20212.98488411  .00001866  00000-0  68729-4 0  9999
2 43740  97.4204 287.2642 0015794 334.5578  25.4883 15.29023653 93118
1 43740U 18096X   20213.44298633  .00002465  00000-0  89891-4 0  9995
2 43740  97.4206 287.7209 0015716 332.8307  27.2109 15.29027300 93180
1 43740U 18096X   20213.77020098  .00002745  00000-0  99804-4 0  9995
2 43740  97.4206 288.0472 0015681 331.5911  28.4473 15.29030172 93238
1 43740U 18096X   20214.09741500  .00003385  00000-0  12239-3 0  9996
2 43740  97.4207 288.3735 0015674 330.3229  29.7121 15.29034228 93280
1 43740U 18096X   20214.16285811  .00003173  00000-0  11493-3 0  9998
2 43740  97.4207 288.4388 0015665 330.0806  29.9537 15.29033824 93298
1 43740U 18096X   20214.75184269  .00003227  00000-0  11682-3 0  9998
2 43740  97.4207 289.0262 0015597 327.8805  32.1484 15.29037605 93381
1 43740U 18096X   20215.20994093  .00003287  00000-0  11893-3 0  9993
2 43740  97.4206 289.4831 0015563 326.1486  33.8759 15.29040534 93452
1 43740U 18096X   20215.66803834  .00003403  00000-0  12303-3 0  9992
2 43740  97.4207 289.9399 0015515 324.3927  35.6277 15.29043685 93527
1 43740U 18096X   20216.12613384  .00003848  00000-0  13873-3 0  9999
2 43740  97.4206 290.3967 0015476 322.6136  37.4025 15.29048409 93599
1 43740U 18096X   20216.38790254  .00003960  00000-0  14269-3 0  9994
2 43740  97.4206 290.6579 0015468 321.6138  38.4000 15.29050560 93633
1 43740U 18096X   20216.84599676  .00004462  00000-0  16038-3 0  9994
2 43740  97.4206 291.1148 0015430 319.8865  40.1234 15.29054871 93702
1 43740U 18096X   20217.17320596  .00004713  00000-0  16925-3 0  9998
2 43740  97.4205 291.4411 0015403 318.6054  41.4018 15.29058310 93755
1 43740U 18096X   20217.43497278  .00004836  00000-0  17358-3 0  9996
2 43740  97.4205 291.7022 0015376 317.5985  42.4066 15.29060937 93792
1 43740U 18096X   20217.63129757  .00004958  00000-0  17786-3 0  9992
2 43740  97.4205 291.8980 0015365 316.8183  43.1851 15.29063144 93823
1 43740U 18096X   20218.15483005  .00004340  00000-0  15603-3 0  9990
2 43740  97.4203 292.4202 0015304 314.7389  45.2604 15.29066113 93900
1 43740U 18096X   20218.28571321  .00003860  00000-0  13909-3 0  9996
2 43740  97.4203 292.5509 0015282 314.2263  45.7721 15.29065975 93924
1 43740U 18096X   20218.67836154  .00003356  00000-0  12129-3 0  9990
2 43740  97.4202 292.9426 0015266 312.7052  47.2902 15.29068121 93986
1 43740U 18096X   20218.87468661  .00002587  00000-0  94103-4 0  9994
2 43740  97.4200 293.1383 0015282 311.9488  48.0448 15.29066930 94016
1 43740U 18096X   20219.13645249  .00002732  00000-0  99247-4 0  9999
2 43740  97.4200 293.3992 0015279 310.9964  48.9954 15.29067872 94059
1 43740U 18096X   20219.33277690  .00002389  00000-0  87119-4 0  9995
2 43740  97.4200 293.5951 0015244 310.2152  49.7753 15.29067863 94089
1 43740U 18096X   20219.65998338  .00002240  00000-0  81854-4 0  9995
2 43740  97.4199 293.9214 0015215 308.9464  51.0420 15.29069457 94134
1 43740U 18096X   20220.44527981  .00001520  00000-0  56401-4 0  9996
2 43740  97.4196 294.7047 0015169 305.7952  54.1877 15.29070139 94251
1 43740U 18096X   20220.77248618  .00001405  00000-0  52365-4 0  9996
2 43740  97.4195 295.0309 0015156 304.5143  55.4665 15.29070910 94302
1 43740U 18096X   20221.16513414  .00001054  00000-0  39937-4 0  9999
2 43740  97.4194 295.4224 0015141 303.0545  56.9241 15.29070692 94364
1 43740U 18096X   20221.29601747  .00001860  00000-0  68422-4 0  9996
2 43740  97.4199 295.5528 0015190 302.6201  57.3572 15.29072485 94381
1 43740U 18096X   20221.75410551  .00000961  00000-0  36665-4 0  9993
2 43740  97.4198 296.0096 0015147 300.6791  59.2956 15.29071222 94453
1 43740U 18096X   20222.14675275  .00000947  00000-0  36185-4 0  9994
2 43740  97.4198 296.4011 0015131 299.1485  60.8240 15.29072032 94510
1 43740U 18096X   20222.47395882  .00000922  00000-0  35267-4 0  9996
2 43740  97.4197 296.7274 0015100 297.8135  62.1574 15.29072566 94568
1 43740U 18096X   20222.67028219  .00000930  00000-0  35574-4 0  9995
2 43740  97.4197 296.9232 0015095 297.0272  62.9426 15.29073125 94590
1 43740U 18096X   20222.80116460  .00000904  00000-0  34653-4 0  9994
2 43740  97.4197 297.0537 0015089 296.5214  63.4478 15.29073230 94616
1 43740U 18096X   20223.12837024  .00000897  00000-0  34386-4 0  9990
2 43740  97.4196 297.3800 0015080 295.2464  64.7213 15.29073907 94662
1 43740U 18096X   20223.45557591  .00000900  00000-0  34512-4 0  9990
2 43740  97.4196 297.7063 0015062 293.9491  66.0172 15.29074577 94711
1 43740U 18096X   20223.78278143  .00000874  00000-0  33597-4 0  9991
2 43740  97.4196 298.0325 0015061 292.6981  67.2666 15.29075121 94767
1 43740U 18096X   20223.91366359  .00000872  00000-0  33507-4 0  9992
2 43740  97.4196 298.1631 0015056 292.1888  67.7754 15.29075356 94788
1 43740U 18096X   20224.17542795  .00000858  00000-0  33021-4 0  9996
2 43740  97.4195 298.4241 0015049 291.1723  68.7909 15.29075797 94823
1 43740U 18096X   20224.50263314  .00000856  00000-0  32932-4 0  9998
2 43740  97.4196 298.7504 0015034 289.8778  70.0842 15.29076428 94876
1 43740U 18096X   20224.63351521  .00000848  00000-0  32667-4 0  9996
2 43740  97.4196 298.8809 0015030 289.3631  70.5984 15.29076650 94895
1 43740U 18096X   20225.09160218  .00000864  00000-0  33223-4 0  9995
2 43740  97.4196 299.3378 0015018 287.5722  72.3877 15.29077620 94966
1 43740U 18096X   20225.48424780  .00000894  00000-0  34300-4 0  9995
2 43740  97.4195 299.7293 0015012 286.0267  73.9319 15.29078608 95020
1 43740U 18096X   20225.54968865  .00000897  00000-0  34382-4 0  9992
2 43740  97.4195 299.7946 0015009 285.7623  74.1961 15.29078789 95030
1 43740U 18096X   20225.68057047  .00000908  00000-0  34776-4 0  9998
2 43740  97.4195 299.9251 0015007 285.2308  74.7273 15.29079134 95053
1 43740U 18096X   20226.13865467  .00001158  00000-0  43622-4 0  9990
2 43740  97.4194 300.3819 0015002 283.4729  76.4839 15.29082078 95127
1 43740U 18096X   20226.20409532  .00001242  00000-0  46565-4 0  9998
2 43740  97.4194 300.4472 0015006 283.1918  76.7647 15.29082707 95134
1 43740U 18096X   20226.26953557  .00001337  00000-0  49919-4 0  9996
2 43740  97.4194 300.5124 0015022 282.9644  76.9918 15.29083549 95149
1 43740U 18096X   20226.72762020  .00001438  00000-0  53507-4 0  9990
2 43740  97.4194 300.9692 0014995 281.0845  78.8708 15.29085485 95211
1 43740U 18096X   20226.79306084  .00001482  00000-0  55058-4 0  9993
2 43740  97.4194 301.0344 0014994 280.8252  79.1301 15.29085874 95221
1 43740U 18096X   20226.85850084  .00001609  00000-0  59535-4 0  9999
2 43740  97.4194 301.0997 0014988 280.5725  79.3827 15.29086939 95239
